[{"OBJECT_NAME":"STARLINK-1392","OBJECT_ID":"2020-035W","EPOCH":"2026-03-09T09:29:33.950112","MEAN_MOTION":15.29339802,"ECCENTRICITY":0.00011759,"INCLINATION":53.157,"RA_OF_ASC_NODE":66.1264,"ARG_OF_PERICENTER":87.1028,"MEAN_ANOMALY":273.0107,"EPHEMERIS_TYPE":0,"CLASSIFICATION_TYPE":"U","NORAD_CAT_ID":45677,"ELEMENT_SET_NO":999,"REV_AT_EPOCH":31871,"BSTAR":-0.000225775,"MEAN_MOTION_DOT":-6.861e-5,"MEAN_MOTION_DDOT":0},{"OBJECT_NAME":"OTTER","OBJECT_ID":"2025-009Q","EPOCH":"2026-03-09T17:21:07.902432","MEAN_MOTION":15.27809545,"ECCENTRICITY":0.00035728,"INCLINATION":97.4065,"RA_OF_ASC_NODE":151.3812,"ARG_OF_PERICENTER":310.771,"MEAN_ANOMALY":49.3219,"EPHEMERIS_TYPE":0,"CLASSIFICATION_TYPE":"U","NORAD_CAT_ID":62623,"ELEMENT_SET_NO":999,"REV_AT_EPOCH":6372,"BSTAR":0.00045151206,"MEAN_MOTION_DOT":0.00012198,"MEAN_MOTION_DDOT":0}]
