STARLINK-1392           
1 45677U 20035W   26068.39553183 -.00006861  00000+0 -22578-3 0  9997
2 45677  53.1570  66.1264 0001175  87.1028 273.0107 15.29339802318719
OTTER                   
1 62623U 25009Q   26068.72300813  .00012198  00000+0  45151-3 0  9990
2 62623  97.4065 151.3812 0003573 310.7710  49.3219 15.27809545 63722
